start=new Date('2021-09-22T00:00:00.000Z').valueOf();
sats=[{"BSTAR":"0.00009895600000","TLE_LINE2":"2 45553  53.0547 204.5146 0001817  64.6554 295.4623 15.06403077 78387","OBJECT_ID":"2020-025Y","RA_OF_ASC_NODE":"204.5146","COUNTRY_CODE":"US","RCS_SIZE":"LARGE","APOAPSIS":"548.462","REV_AT_EPOCH":"7838","DECAY_DATE":null,"TLE_LINE1":"1 45553U 20025Y   21264.57065225  .00001193  00000-0  98956-4 0  9993","CLASSIFICATION_TYPE":"U","NORAD_CAT_ID":"45553","MEAN_ANOMALY":"295.4623","PERIAPSIS":"545.946","TIME_SYSTEM":"UTC","SEMIMAJOR_AXIS":"6925.339","MEAN_MOTION":"15.06403077","GP_ID":"185156688","FILE":"3121847","ARG_OF_PERICENTER":"64.6554","EPOCH":"2021-09-21T13:41:44.354400","REF_FRAME":"TEME","MEAN_MOTION_DDOT":"0.0000000000000","MEAN_MOTION_DOT":"0.00001193","OBJECT_NAME":"STARLINK-1323","INCLINATION":"53.0547","ELEMENT_SET_NO":"999","EPHEMERIS_TYPE":"0","OBJECT_TYPE":"PAYLOAD","MEAN_ELEMENT_THEORY":"SGP4","SITE":"AFETR","PERIOD":"95.592","ECCENTRICITY":"0.00018170","LAUNCH_DATE":"2020-04-22","CENTER_NAME":"EARTH"},{"PERIOD":"95.592","MEAN_ELEMENT_THEORY":"SGP4","SITE":"AFETR","CENTER_NAME":"EARTH","ECCENTRICITY":"0.00018160","LAUNCH_DATE":"2020-04-22","ARG_OF_PERICENTER":"66.9568","MEAN_MOTION_DOT":"0.00000841","MEAN_MOTION_DDOT":"0.0000000000000","REF_FRAME":"TEME","EPOCH":"2021-09-21T13:31:06.699072","GP_ID":"185156869","MEAN_MOTION":"15.06405938","FILE":"3121847","EPHEMERIS_TYPE":"0","OBJECT_TYPE":"PAYLOAD","OBJECT_NAME":"STARLINK-1325","INCLINATION":"53.0554","ELEMENT_SET_NO":"999","TLE_LINE1":"1 45554U 20025Z   21264.56327198  .00000841  00000-0  75354-4 0  9999","DECAY_DATE":null,"SEMIMAJOR_AXIS":"6925.330","TIME_SYSTEM":"UTC","PERIAPSIS":"545.938","NORAD_CAT_ID":"45554","CLASSIFICATION_TYPE":"U","MEAN_ANOMALY":"293.1612","COUNTRY_CODE":"US","RA_OF_ASC_NODE":"204.5515","TLE_LINE2":"2 45554  53.0554 204.5515 0001816  66.9568 293.1612 15.06405938 79679","BSTAR":"0.00007535400000","OBJECT_ID":"2020-025Z","REV_AT_EPOCH":"7967","RCS_SIZE":"LARGE","APOAPSIS":"548.453"},{"REV_AT_EPOCH":"7906","RCS_SIZE":"LARGE","APOAPSIS":"548.408","RA_OF_ASC_NODE":"204.7156","COUNTRY_CODE":"US","TLE_LINE2":"2 45555  53.0553 204.7156 0001704  70.0626 290.0546 15.06395469 79061","BSTAR":"-0.00002982900000","OBJECT_ID":"2020-025AA","PERIAPSIS":"546.047","TIME_SYSTEM":"UTC","SEMIMAJOR_AXIS":"6925.362","CLASSIFICATION_TYPE":"U","NORAD_CAT_ID":"45555","MEAN_ANOMALY":"290.0546","TLE_LINE1":"1 45555U 20025AA  21264.52642281 -.00000726  00000-0 -29829-4 0  9999","DECAY_DATE":null,"EPHEMERIS_TYPE":"0","OBJECT_TYPE":"PAYLOAD","OBJECT_NAME":"STARLINK-1327","ELEMENT_SET_NO":"999","INCLINATION":"53.0553","ARG_OF_PERICENTER":"70.0626","EPOCH":"2021-09-21T12:38:02.930784","REF_FRAME":"TEME","MEAN_MOTION_DOT":"-0.00000726","MEAN_MOTION_DDOT":"0.0000000000000","MEAN_MOTION":"15.06395469","GP_ID":"185159984","FILE":"3121895","CENTER_NAME":"EARTH","ECCENTRICITY":"0.00017040","LAUNCH_DATE":"2020-04-22","PERIOD":"95.592","SITE":"AFETR","MEAN_ELEMENT_THEORY":"SGP4"},{"FILE":"3121910","MEAN_MOTION":"15.06402728","GP_ID":"185160753","REF_FRAME":"TEME","EPOCH":"2021-09-21T13:36:25.582464","MEAN_MOTION_DOT":"0.00000761","MEAN_MOTION_DDOT":"0.0000000000000","ARG_OF_PERICENTER":"54.7499","ELEMENT_SET_NO":"999","INCLINATION":"53.0541","OBJECT_NAME":"STARLINK-1334","OBJECT_TYPE":"PAYLOAD","EPHEMERIS_TYPE":"0","SITE":"AFETR","MEAN_ELEMENT_THEORY":"SGP4","PERIOD":"95.592","LAUNCH_DATE":"2020-04-22","ECCENTRICITY":"0.00016770","CENTER_NAME":"EARTH","OBJECT_ID":"2020-025AB","BSTAR":"0.00006996300000","TLE_LINE2":"2 45556  53.0541 204.5346 0001677  54.7499 305.3647 15.06402728 79074","RA_OF_ASC_NODE":"204.5346","COUNTRY_CODE":"US","APOAPSIS":"548.367","RCS_SIZE":"LARGE","REV_AT_EPOCH":"7907","DECAY_DATE":null,"TLE_LINE1":"1 45556U 20025AB  21264.56696276  .00000761  00000-0  69963-4 0  9997","MEAN_ANOMALY":"305.3647","CLASSIFICATION_TYPE":"U","NORAD_CAT_ID":"45556","PERIAPSIS":"546.044","TIME_SYSTEM":"UTC","SEMIMAJOR_AXIS":"6925.340"},{"COUNTRY_CODE":"US","RA_OF_ASC_NODE":"204.4970","OBJECT_ID":"2020-025AC","BSTAR":"0.00006252300000","TLE_LINE2":"2 45557  53.0564 204.4970 0001805  65.7057 294.4120 15.06398280 79078","REV_AT_EPOCH":"7907","APOAPSIS":"548.469","RCS_SIZE":"LARGE","TLE_LINE1":"1 45557U 20025AC  21264.57433621  .00000650  00000-0  62523-4 0  9994","DECAY_DATE":null,"TIME_SYSTEM":"UTC","SEMIMAJOR_AXIS":"6925.354","PERIAPSIS":"545.969","MEAN_ANOMALY":"294.4120","NORAD_CAT_ID":"45557","CLASSIFICATION_TYPE":"U","MEAN_MOTION_DDOT":"0.0000000000000","MEAN_MOTION_DOT":"0.00000650","REF_FRAME":"TEME","EPOCH":"2021-09-21T13:47:02.648544","ARG_OF_PERICENTER":"65.7057","FILE":"3121954","GP_ID":"185161866","MEAN_MOTION":"15.06398280","OBJECT_TYPE":"PAYLOAD","EPHEMERIS_TYPE":"0","ELEMENT_SET_NO":"999","INCLINATION":"53.0564","OBJECT_NAME":"STARLINK-1336","PERIOD":"95.592","SITE":"AFETR","MEAN_ELEMENT_THEORY":"SGP4","CENTER_NAME":"EARTH","LAUNCH_DATE":"2020-04-22","ECCENTRICITY":"0.00018050"},{"EPHEMERIS_TYPE":"0","OBJECT_TYPE":"PAYLOAD","OBJECT_NAME":"STARLINK-1342","INCLINATION":"53.0543","ELEMENT_SET_NO":"999","ARG_OF_PERICENTER":"68.3044","EPOCH":"2021-09-21T12:59:16.109088","REF_FRAME":"TEME","MEAN_MOTION_DOT":"0.00001155","MEAN_MOTION_DDOT":"0.0000000000000","MEAN_MOTION":"15.06400072","GP_ID":"185156370","FILE":"3121847","CENTER_NAME":"EARTH","ECCENTRICITY":"0.00018760","LAUNCH_DATE":"2020-04-22","PERIOD":"95.592","SITE":"AFETR","MEAN_ELEMENT_THEORY":"SGP4","REV_AT_EPOCH":"7966","RCS_SIZE":"LARGE","APOAPSIS":"548.513","RA_OF_ASC_NODE":"204.6480","COUNTRY_CODE":"US","BSTAR":"0.00009644000000","TLE_LINE2":"2 45558  53.0543 204.6480 0001876  68.3044 291.8145 15.06400072 79663","OBJECT_ID":"2020-025AD","PERIAPSIS":"545.914","SEMIMAJOR_AXIS":"6925.348","TIME_SYSTEM":"UTC","CLASSIFICATION_TYPE":"U","NORAD_CAT_ID":"45558","MEAN_ANOMALY":"291.8145","TLE_LINE1":"1 45558U 20025AD  21264.54115867  .00001155  00000-0  96440-4 0  9997","DECAY_DATE":null},{"DECAY_DATE":null,"TLE_LINE1":"1 45559U 20025AE  21264.24629190 -.00000705  00000-0 -28412-4 0  9990","NORAD_CAT_ID":"45559","CLASSIFICATION_TYPE":"U","MEAN_ANOMALY":"289.9465","SEMIMAJOR_AXIS":"6925.361","TIME_SYSTEM":"UTC","PERIAPSIS":"546.071","BSTAR":"-0.00002841200000","TLE_LINE2":"2 45559  53.0534 205.9677 0001668  70.1703 289.9465 15.06396009 79621","OBJECT_ID":"2020-025AE","COUNTRY_CODE":"US","RA_OF_ASC_NODE":"205.9677","RCS_SIZE":"LARGE","APOAPSIS":"548.381","REV_AT_EPOCH":"7962","MEAN_ELEMENT_THEORY":"SGP4","SITE":"AFETR","PERIOD":"95.592","ECCENTRICITY":"0.00016680","LAUNCH_DATE":"2020-04-22","CENTER_NAME":"EARTH","GP_ID":"185155206","MEAN_MOTION":"15.06396009","FILE":"3121847","ARG_OF_PERICENTER":"70.1703","MEAN_MOTION_DDOT":"0.0000000000000","MEAN_MOTION_DOT":"-0.00000705","EPOCH":"2021-09-21T05:54:39.620160","REF_FRAME":"TEME","OBJECT_NAME":"STARLINK-1344","ELEMENT_SET_NO":"999","INCLINATION":"53.0534","EPHEMERIS_TYPE":"0","OBJECT_TYPE":"PAYLOAD"},{"PERIOD":"95.592","MEAN_ELEMENT_THEORY":"SGP4","SITE":"AFETR","CENTER_NAME":"EARTH","LAUNCH_DATE":"2020-04-22","ECCENTRICITY":"0.00016930","REF_FRAME":"TEME","EPOCH":"2021-09-21T21:30:10.256256","MEAN_MOTION_DOT":"0.00000468","MEAN_MOTION_DDOT":"0.0000000000000","ARG_OF_PERICENTER":"66.5523","FILE":"3122258","MEAN_MOTION":"15.06399210","GP_ID":"185187871","OBJECT_TYPE":"PAYLOAD","EPHEMERIS_TYPE":"0","INCLINATION":"53.0545","ELEMENT_SET_NO":"999","OBJECT_NAME":"STARLINK-1346","TLE_LINE1":"1 45560U 20025AF  21264.89595204  .00000468  00000-0  50317-4 0  9994","DECAY_DATE":null,"PERIAPSIS":"546.044","SEMIMAJOR_AXIS":"6925.351","TIME_SYSTEM":"UTC","MEAN_ANOMALY":"293.5643","CLASSIFICATION_TYPE":"U","NORAD_CAT_ID":"45560","RA_OF_ASC_NODE":"193.0540","COUNTRY_CODE":"US","OBJECT_ID":"2020-025AF","BSTAR":"0.00005031700000","TLE_LINE2":"2 45560  53.0545 193.0540 0001693  66.5523 293.5643 15.06399210 79860","REV_AT_EPOCH":"7986","APOAPSIS":"548.388","RCS_SIZE":"LARGE"},{"DECAY_DATE":null,"TLE_LINE1":"1 45561U 20025AG  21264.87716803  .00002878  00000-0  20896-3 0  9998","MEAN_ANOMALY":"250.4154","NORAD_CAT_ID":"45561","CLASSIFICATION_TYPE":"U","TIME_SYSTEM":"UTC","SEMIMAJOR_AXIS":"6923.654","PERIAPSIS":"543.995","OBJECT_ID":"2020-025AG","BSTAR":"0.00020896000000","TLE_LINE2":"2 45561  53.0581 117.9972 0002202 109.7073 250.4154 15.06952942 80916","COUNTRY_CODE":"US","RA_OF_ASC_NODE":"117.9972","APOAPSIS":"547.044","RCS_SIZE":"LARGE","REV_AT_EPOCH":"8091","MEAN_ELEMENT_THEORY":"SGP4","SITE":"AFETR","PERIOD":"95.557","LAUNCH_DATE":"2020-04-22","ECCENTRICITY":"0.00022020","CENTER_NAME":"EARTH","FILE":"3122258","GP_ID":"185187624","MEAN_MOTION":"15.06952942","MEAN_MOTION_DDOT":"0.0000000000000","MEAN_MOTION_DOT":"0.00002878","REF_FRAME":"TEME","EPOCH":"2021-09-21T21:03:07.317792","ARG_OF_PERICENTER":"109.7073","ELEMENT_SET_NO":"999","INCLINATION":"53.0581","OBJECT_NAME":"STARLINK-1348","OBJECT_TYPE":"PAYLOAD","EPHEMERIS_TYPE":"0"},{"MEAN_ELEMENT_THEORY":"SGP4","SITE":"AFETR","PERIOD":"95.593","LAUNCH_DATE":"2020-04-22","ECCENTRICITY":"0.00018410","CENTER_NAME":"EARTH","FILE":"3121847","MEAN_MOTION":"15.06393490","GP_ID":"185156870","EPOCH":"2021-09-21T02:54:11.750976","REF_FRAME":"TEME","MEAN_MOTION_DOT":"0.00000684","MEAN_MOTION_DDOT":"0.0000000000000","ARG_OF_PERICENTER":"68.3911","ELEMENT_SET_NO":"999","INCLINATION":"53.0538","OBJECT_NAME":"STARLINK-1354","OBJECT_TYPE":"PAYLOAD","EPHEMERIS_TYPE":"0","DECAY_DATE":null,"TLE_LINE1":"1 45562U 20025AH  21264.12096934  .00000684  00000-0  64863-4 0  9999","MEAN_ANOMALY":"291.7274","CLASSIFICATION_TYPE":"U","NORAD_CAT_ID":"45562","PERIAPSIS":"545.959","SEMIMAJOR_AXIS":"6925.369","TIME_SYSTEM":"UTC","OBJECT_ID":"2020-025AH","BSTAR":"0.00006486300000","TLE_LINE2":"2 45562  53.0538 206.5346 0001841  68.3911 291.7274 15.06393490 79600","RA_OF_ASC_NODE":"206.5346","COUNTRY_CODE":"US","APOAPSIS":"548.508","RCS_SIZE":"LARGE","REV_AT_EPOCH":"7960"}];
